[{"OBJECT_NAME":"STARLINK-5902","OBJECT_ID":"2023-042N","EPOCH":"2026-03-09T00:52:28.838496","MEAN_MOTION":15.02537897,"ECCENTRICITY":0.00012932,"INCLINATION":43.0042,"RA_OF_ASC_NODE":59.5275,"ARG_OF_PERICENTER":263.1469,"MEAN_ANOMALY":96.9226,"EPHEMERIS_TYPE":0,"CLASSIFICATION_TYPE":"U","NORAD_CAT_ID":55998,"ELEMENT_SET_NO":999,"REV_AT_EPOCH":16281,"BSTAR":0.00010539184,"MEAN_MOTION_DOT":1.22e-5,"MEAN_MOTION_DDOT":0},{"OBJECT_NAME":"CZ-6A DEB","OBJECT_ID":"2022-151BA","EPOCH":"2026-03-08T17:30:58.855968","MEAN_MOTION":14.9439792,"ECCENTRICITY":0.00472807,"INCLINATION":98.5596,"RA_OF_ASC_NODE":128.1704,"ARG_OF_PERICENTER":200.9968,"MEAN_ANOMALY":158.931,"EPHEMERIS_TYPE":0,"CLASSIFICATION_TYPE":"U","NORAD_CAT_ID":54307,"ELEMENT_SET_NO":999,"REV_AT_EPOCH":10452,"BSTAR":0.0069448926,"MEAN_MOTION_DOT":0.00077164,"MEAN_MOTION_DDOT":0}]
